[{"OBJECT_NAME":"SAUDISAT 5A","OBJECT_ID":"2018-102A","EPOCH":"2026-03-09T23:40:00.596928","MEAN_MOTION":15.26941021,"ECCENTRICITY":0.00113651,"INCLINATION":97.3185,"RA_OF_ASC_NODE":132.4981,"ARG_OF_PERICENTER":121.7113,"MEAN_ANOMALY":238.5235,"EPHEMERIS_TYPE":0,"CLASSIFICATION_TYPE":"U","NORAD_CAT_ID":43831,"ELEMENT_SET_NO":999,"REV_AT_EPOCH":40053,"BSTAR":0.00030305233,"MEAN_MOTION_DOT":7.96e-5,"MEAN_MOTION_DDOT":0},{"OBJECT_NAME":"STARLINK-35360","OBJECT_ID":"2025-259Y","EPOCH":"2026-03-09T22:34:38.995104","MEAN_MOTION":15.27603584,"ECCENTRICITY":0.0002299,"INCLINATION":43.005,"RA_OF_ASC_NODE":272.5823,"ARG_OF_PERICENTER":295.7841,"MEAN_ANOMALY":64.2773,"EPHEMERIS_TYPE":0,"CLASSIFICATION_TYPE":"U","NORAD_CAT_ID":66444,"ELEMENT_SET_NO":999,"REV_AT_EPOCH":1953,"BSTAR":0.00088901469,"MEAN_MOTION_DOT":0.000243,"MEAN_MOTION_DDOT":0}]
